{"type": "FeatureCollection", "features": [ {"type": "Feature", "properties": {"norad_id": 60989, "name": "SENTINEL-2C", "group": "resource", "lat": 30.026353375985135, "lon": -111.13324718383501, "alt_km": 786.8987055329799, "timestamp": "2025-12-17T10:52:54.006930+00:00", "meta": {"OBJECT_NAME": "SENTINEL-2C", "OBJECT_ID": "2024-157A", "EPOCH": "2025-12-16T22:26:13.635456", "MEAN_MOTION": 14.30819214, "ECCENTRICITY": 0.00012278, "INCLINATION": 98.568, "RA_OF_ASC_NODE": 63.357, "ARG_OF_PERICENTER": 97.0096, "MEAN_ANOMALY": 263.1227, "EPHEMERIS_TYPE": 0, "CLASSIFICATION_TYPE": "U", "NORAD_CAT_ID": 60989, "ELEMENT_SET_NO": 999, "REV_AT_EPOCH": 6692, "BSTAR": 6.4026345e-05, "MEAN_MOTION_DOT": 1.24e-06, "MEAN_MOTION_DDOT": 0}, "tle": {"line1": "1 60989U 24157A   25350.93488004  .00000124  00000+0  64026-4 0  9990", "line2": "2 60989  98.5680  63.3570 0001227  97.0096 263.1227 14.30819214 66926"}}, "geometry": {"type": "Point", "coordinates": [-111.13324718383501, 30.026353375985135]}}, {"type": "Feature", "properties": {"norad_id": 61735, "name": "IONOSFERA-M 1", "group": "resource", "lat": -77.77963114511643, "lon": -93.47503254064925, "alt_km": 823.5544276622113, "timestamp": "2025-12-17T10:52:54.006940+00:00", "meta": {"OBJECT_NAME": "IONOSFERA-M 1", "OBJECT_ID": "2024-199A", "EPOCH": "2025-12-16T23:26:55.741056", "MEAN_MOTION": 14.22714978, "ECCENTRICITY": 7.57e-05, "INCLINATION": 98.7402, "RA_OF_ASC_NODE": 220.7927, "ARG_OF_PERICENTER": 15.8637, "MEAN_ANOMALY": 344.2565, "EPHEMERIS_TYPE": 0, "CLASSIFICATION_TYPE": "U", "NORAD_CAT_ID": 61735, "ELEMENT_SET_NO": 999, "REV_AT_EPOCH": 10179, "BSTAR": 4.4174296e-05, "MEAN_MOTION_DOT": 5.5e-07, "MEAN_MOTION_DDOT": 0}, "tle": {"line1": "1 61735U 24199A   25350.97703404  .00000055  00000+0  44174-4 0  9999", "line2": "2 61735  98.7402 220.7927 0000757  15.8637 344.2565 14.22714978101794"}}, "geometry": {"type": "Point", "coordinates": [-93.47503254064925, -77.77963114511643]}}, {"type": "Feature", "properties": {"norad_id": 61736, "name": "IONOSFERA-M 2", "group": "resource", "lat": 75.73242774069071, "lon": 78.40612164458729, "alt_km": 807.7229910541428, "timestamp": "2025-12-17T10:52:54.006950+00:00", "meta": {"OBJECT_NAME": "IONOSFERA-M 2", "OBJECT_ID": "2024-199B", "EPOCH": "2025-12-16T22:35:32.356608", "MEAN_MOTION": 14.22717101, "ECCENTRICITY": 0.00017407, "INCLINATION": 98.7407, "RA_OF_ASC_NODE": 220.6697, "ARG_OF_PERICENTER": 104.9292, "MEAN_ANOMALY": 255.2078, "EPHEMERIS_TYPE": 0, "CLASSIFICATION_TYPE": "U", "NORAD_CAT_ID": 61736, "ELEMENT_SET_NO": 999, "REV_AT_EPOCH": 10491, "BSTAR": 4.2672967e-05, "MEAN_MOTION_DOT": 5.1e-07, "MEAN_MOTION_DDOT": 0}, "tle": {"line1": "1 61736U 24199B   25350.94134672  .00000051  00000+0  42673-4 0  9990", "line2": "2 61736  98.7407 220.6697 0001740 104.9292 255.2078 14.22717101104911"}}, "geometry": {"type": "Point", "coordinates": [78.40612164458729, 75.73242774069071]}}, {"type": "Feature", "properties": {"norad_id": 63772, "name": "BIOMASS", "group": "resource", "lat": -26.99416550292041, "lon": -179.46125779326934, "alt_km": 674.9264863642038, "timestamp": "2025-12-17T10:52:54.006960+00:00", "meta": {"OBJECT_NAME": "BIOMASS", "OBJECT_ID": "2025-090A", "EPOCH": "2025-12-16T23:33:04.058208", "MEAN_MOTION": 14.6753709, "ECCENTRICITY": 0.00011214, "INCLINATION": 98.07, "RA_OF_ASC_NODE": 175.9291, "ARG_OF_PERICENTER": 81.6698, "MEAN_ANOMALY": 278.4634, "EPHEMERIS_TYPE": 0, "CLASSIFICATION_TYPE": "U", "NORAD_CAT_ID": 63772, "ELEMENT_SET_NO": 999, "REV_AT_EPOCH": 3396, "BSTAR": 0.000230422, "MEAN_MOTION_DOT": 1.259e-05, "MEAN_MOTION_DDOT": 0}, "tle": {"line1": "1 63772U 25090A   25350.98129697  .00001259  00000+0  23042-3 0  9997", "line2": "2 63772  98.0700 175.9291 0001121  81.6698 278.4634 14.67537090 33965"}}, "geometry": {"type": "Point", "coordinates": [-179.46125779326934, -26.99416550292041]}}, {"type": "Feature", "properties": {"norad_id": 64694, "name": "GOSAT-GW (IBUKI GW)", "group": "resource", "lat": -2.848791979036243, "lon": 106.47757755630145, "alt_km": 672.4090361361823, "timestamp": "2025-12-17T10:52:54.006970+00:00", "meta": {"OBJECT_NAME": "GOSAT-GW (IBUKI GW)", "OBJECT_ID": "2025-141A", "EPOCH": "2025-12-16T22:35:50.040960", "MEAN_MOTION": 14.67561492, "ECCENTRICITY": 0.0001436, "INCLINATION": 98.0431, "RA_OF_ASC_NODE": 286.3782, "ARG_OF_PERICENTER": 83.8839, "MEAN_ANOMALY": 276.2529, "EPHEMERIS_TYPE": 0, "CLASSIFICATION_TYPE": "U", "NORAD_CAT_ID": 64694, "ELEMENT_SET_NO": 999, "REV_AT_EPOCH": 2511, "BSTAR": 0.00016469483, "MEAN_MOTION_DOT": 8.87e-06, "MEAN_MOTION_DDOT": 0}, "tle": {"line1": "1 64694U 25141A   25350.94155140  .00000887  00000+0  16469-3 0  9997", "line2": "2 64694  98.0431 286.3782 0001436  83.8839 276.2529 14.67561492 25112"}}, "geometry": {"type": "Point", "coordinates": [106.47757755630145, -2.848791979036243]}}, {"type": "Feature", "properties": {"norad_id": 64876, "name": "IONOSFERA-M 3", "group": "resource", "lat": 55.09598943158022, "lon": 145.6811853901042, "alt_km": 814.7427498583284, "timestamp": "2025-12-17T10:52:54.006980+00:00", "meta": {"OBJECT_NAME": "IONOSFERA-M 3", "OBJECT_ID": "2025-155A", "EPOCH": "2025-12-16T22:28:31.085760", "MEAN_MOTION": 14.2144212, "ECCENTRICITY": 0.00021288, "INCLINATION": 98.5788, "RA_OF_ASC_NODE": 312.6839, "ARG_OF_PERICENTER": 53.1654, "MEAN_ANOMALY": 306.9719, "EPHEMERIS_TYPE": 0, "CLASSIFICATION_TYPE": "U", "NORAD_CAT_ID": 64876, "ELEMENT_SET_NO": 999, "REV_AT_EPOCH": 2051, "BSTAR": 5.0618592e-05, "MEAN_MOTION_DOT": 6.8e-07, "MEAN_MOTION_DDOT": 0}, "tle": {"line1": "1 64876U 25155A   25350.93647090  .00000068  00000+0  50619-4 0  9990", "line2": "2 64876  98.5788 312.6839 0002128  53.1654 306.9719 14.21442120 20511"}}, "geometry": {"type": "Point", "coordinates": [145.6811853901042, 55.09598943158022]}}, {"type": "Feature", "properties": {"norad_id": 64877, "name": "IONOSFERA-M 4", "group": "resource", "lat": -54.609480658637246, "lon": -34.626475964278335, "alt_km": 827.8955061058014, "timestamp": "2025-12-17T10:52:54.006989+00:00", "meta": {"OBJECT_NAME": "IONOSFERA-M 4", "OBJECT_ID": "2025-155B", "EPOCH": "2025-12-16T23:19:00.518592", "MEAN_MOTION": 14.21443236, "ECCENTRICITY": 0.00015061, "INCLINATION": 98.5786, "RA_OF_ASC_NODE": 312.6375, "ARG_OF_PERICENTER": 59.1689, "MEAN_ANOMALY": 300.9637, "EPHEMERIS_TYPE": 0, "CLASSIFICATION_TYPE": "U", "NORAD_CAT_ID": 64877, "ELEMENT_SET_NO": 999, "REV_AT_EPOCH": 2051, "BSTAR": 4.5887801e-05, "MEAN_MOTION_DOT": 5.8e-07, "MEAN_MOTION_DDOT": 0}, "tle": {"line1": "1 64877U 25155B   25350.97153378  .00000058  00000+0  45888-4 0  9997", "line2": "2 64877  98.5786 312.6375 0001506  59.1689 300.9637 14.21443236 20510"}}, "geometry": {"type": "Point", "coordinates": [-34.626475964278335, -54.609480658637246]}}, {"type": "Feature", "properties": {"norad_id": 64899, "name": "MICROCARB", "group": "resource", "lat": -56.09934596859911, "lon": -125.36066907994743, "alt_km": 665.003061010706, "timestamp": "2025-12-17T10:52:54.006999+00:00", "meta": {"OBJECT_NAME": "MICROCARB", "OBJECT_ID": "2025-156A", "EPOCH": "2025-12-16T22:23:27.286080", "MEAN_MOTION": 14.7206402, "ECCENTRICITY": 0.00173918, "INCLINATION": 98.0023, "RA_OF_ASC_NODE": 66.2111, "ARG_OF_PERICENTER": 132.0494, "MEAN_ANOMALY": 228.2197, "EPHEMERIS_TYPE": 0, "CLASSIFICATION_TYPE": "U", "NORAD_CAT_ID": 64899, "ELEMENT_SET_NO": 999, "REV_AT_EPOCH": 2115, "BSTAR": 0.00010783468, "MEAN_MOTION_DOT": 6.29e-06, "MEAN_MOTION_DDOT": 0}, "tle": {"line1": "1 64899U 25156A   25350.93295470  .00000629  00000+0  10783-3 0  9997", "line2": "2 64899  98.0023  66.2111 0017391 132.0494 228.2197 14.72064020 21157"}}, "geometry": {"type": "Point", "coordinates": [-125.36066907994743, -56.09934596859911]}}, {"type": "Feature", "properties": {"norad_id": 64900, "name": "CO3D 3", "group": "resource", "lat": 13.599781170197693, "lon": 65.94263477995332, "alt_km": 505.93839259919514, "timestamp": "2025-12-17T10:52:54.007009+00:00", "meta": {"OBJECT_NAME": "CO3D 3", "OBJECT_ID": "2025-156B", "EPOCH": "2025-12-13T16:46:35.865408", "MEAN_MOTION": 15.2020033, "ECCENTRICITY": 0.00013843, "INCLINATION": 97.4344, "RA_OF_ASC_NODE": 64.0523, "ARG_OF_PERICENTER": 93.9049, "MEAN_ANOMALY": 266.2345, "EPHEMERIS_TYPE": 0, "CLASSIFICATION_TYPE": "U", "NORAD_CAT_ID": 64900, "ELEMENT_SET_NO": 999, "REV_AT_EPOCH": 2135, "BSTAR": 0.00015817929, "MEAN_MOTION_DOT": 3.358e-05, "MEAN_MOTION_DDOT": 0}, "tle": {"line1": "1 64900U 25156B   25347.69902622  .00003358  00000+0  15818-3 0  9999", "line2": "2 64900  97.4344  64.0523 0001384  93.9049 266.2345 15.20200330 21357"}}, "geometry": {"type": "Point", "coordinates": [65.94263477995332, 13.599781170197693]}}, {"type": "Feature", "properties": {"norad_id": 64901, "name": "CO3D 4", "group": "resource", "lat": 12.522013684761198, "lon": 66.09131250376579, "alt_km": 507.24314606352345, "timestamp": "2025-12-17T10:52:54.007019+00:00", "meta": {"OBJECT_NAME": "CO3D 4", "OBJECT_ID": "2025-156C", "EPOCH": "2025-12-16T23:46:05.077920", "MEAN_MOTION": 15.2020571, "ECCENTRICITY": 0.00010709, "INCLINATION": 97.4346, "RA_OF_ASC_NODE": 67.2968, "ARG_OF_PERICENTER": 181.8559, "MEAN_ANOMALY": 178.2672, "EPHEMERIS_TYPE": 0, "CLASSIFICATION_TYPE": "U", "NORAD_CAT_ID": 64901, "ELEMENT_SET_NO": 999, "REV_AT_EPOCH": 2185, "BSTAR": 0.00023095116, "MEAN_MOTION_DOT": 4.936e-05, "MEAN_MOTION_DDOT": 0}, "tle": {"line1": "1 64901U 25156C   25350.99033655  .00004936  00000+0  23095-3 0  9997", "line2": "2 64901  97.4346  67.2968 0001070 181.8559 178.2672 15.20205710 21850"}}, "geometry": {"type": "Point", "coordinates": [66.09131250376579, 12.522013684761198]}}]}